CONTAINMENT_ZONE_NAME,LATITUDE,LONGITUDE,RADIUS,PINCODE,DISTRICT,STATE,COUNTRY
Parvati Darshan area 1,18.485861,73.84963599999999,500, 411001, Pune District, Maharashtra, India
"Parvati ,Dandekar bridge slum area",18.5004581,73.8479712,500, 411001, Pune District, Maharashtra, India
Parvati Sr no.133 Dandekar Bridge,18.5018824,73.84549129999999,500, 411001, Pune District, Maharashtra, India
"Sadashiv Peth ,Rajendra Nagar Slam area",18.5019018,73.8459496,500, 411001, Pune District, Maharashtra, India
"Sadashiv Peth ,Rajendra Nagar PMC Colony",18.5033213,73.8412709,500, 411001, Pune District, Maharashtra, India
"City area ,kasbaha Peth, Mangalwar  Peth ",18.5240566,73.8646945,500, 411001, Pune District, Maharashtra, India
"Parvati Dattawadi ,Gadgil Clinic area",18.4961383,73.8384476,500, 411001, Pune District, Maharashtra, India
"City area ,Ganesh Peth,Nana Peth ,Bhavani Peth,",18.5118195,73.8667203,500, 411001, Pune District, Maharashtra, India
"Citi area, Nana Peth, Bhavani Peth",18.5116074,73.8705748,500, 411001, Pune District, Maharashtra, India
"Citi area, Guruwar Peth ,Mahatma Phule Peth,Ghorpade Peth",18.5063909,73.8602841,500, 411002, Pune District, Maharashtra, India
"Pune station, Tadiwala road",18.53032,73.87486899999999,500, 411011, Pune District, Maharashtra, India
Ghorpadi Sr no.71 Pai Shreenath Nagar,18.5242385,73.90401609999999,500, 411001, Pune District, Maharashtra, India
"Ghorpadi Sr no. 54 ,Shivdatta Colony",18.5164554,73.9078734,500, 411001, Pune District, Maharashtra, India
"Ghorpadi Sr no.53,Pawar Enterprises",18.517721,73.906694,500, 411001, Pune District, Maharashtra, India
"Ghorpadi Sr no.15 Pai,Shaktin agar",18.5235518,73.906346,500, 411001, Pune District, Maharashtra, India
"Ghorpadi Sr no.47 Pai, Dhwale Wasti",18.5235518,73.906346,500, 411001, Pune District, Maharashtra, India
"Hadapsar Sr no.124 pai,282,282 Pai, Mundhwa Ghorpadi,Bhimnagar",18.4932481,73.93228599999999,500, 411028, Pune District, Maharashtra, India
Parvati Taljai Vasti 1,18.4749781,73.8505704,500, 411001, Pune District, Maharashtra, India
Parvati Taljai Vasti 2,18.478023,73.840436,500, 411001, Pune District, Maharashtra, India
"Parvati, Shiv darshan 2",18.4933361,73.8543107,500, 411001, Pune District, Maharashtra, India
"Dhankwadi ,Rajiv Gandhi Vasahat",18.4703162,73.85379689999999,500, 411001, Pune District, Maharashtra, India
"Parvati Aaranshwar ,Tawade Colony",18.4804254,73.8532105,500, 411001, Pune District, Maharashtra, India
"Parvati Sakhol Apartment ,Shau Collage road ,Near BSNL office",28.7040395,76.906932,500, 124507, Jhajjar, Haryana, India
"Dhankwadi ,Pratiksha Bangalo,Jagdish Society",18.4654546,73.85468209999999,500, 411046, Pune District, Maharashtra, India
"kartraj,Aayappa Temple ,Rajgad Colony",18.4529322,73.86523799999999,500, 411018, Pune District, Maharashtra, India
"Katraj, Shivshankar Colony ,Lane no. 5",18.4529322,73.86523799999999,500, 411018, Pune District, Maharashtra, India
"Ambegoa Bk, Sr no.8 Pai, Saileela Apartment",18.4356456,73.860102,500, 411046, Pune District, Maharashtra, India
"Bibvewadi, Ambedkar nagar, Market yard",18.4838622,73.86616459999999,500, 411001, Pune District, Maharashtra, India
Gultekdi dias plot,18.495765,73.86938800000001,500, 411037, Pune District, Maharashtra, India
"Gultekdi,  Meenatai Thakre Nagar",18.4877372,73.8704877,500, 411001, Pune District, Maharashtra, India
"Bibwewadi ,Appar Indira nagar",18.4584216,73.8694331,500, 411018, Pune District, Maharashtra, India
"Bibwewadi, Premnagar Vasahat",18.4830185,73.86267300000002,500, 411001, Pune District, Maharashtra, India
"Bibwewadi, Sr no.580 ,Hamal nagar",18.4807808,73.87127459999999,500, 411001, Pune District, Maharashtra, India
"Bibwewadi,Kothari Blogs,Bibwewadi otha Vasahat",18.4690213,73.8640944,500, 411001, Pune District, Maharashtra, India
"Bibwewadi ,Appar Indira nagar",18.4584216,73.8694331,500, 411018, Pune District, Maharashtra, India
"Yerawada ,Prabhag no 6",18.5454903,73.8886579,500, 411001, Pune District, Maharashtra, India
"Yerawada Sr no.191 Pai,Nagpur Chal area",18.5629553,73.89372709999999,500, 411001, Pune District, Maharashtra, India
"Yerawada, Aadarsh Indiranagar,Aalandi road",18.559076,73.8762064,500, 411001, Pune District, Maharashtra, India
"Hadapsar ,Ramnagar",18.5021335,73.918269,500, 411001, Pune District, Maharashtra, India
"Hadapsar,Ramtekdi",18.5040461,73.9161418,500, 411001, Pune District, Maharashtra, India
"Hadapsar,Gosavi wasti",18.5096028,73.9470036,500, 411028, Pune District, Maharashtra, India
"Hadapsar,Sayyadnagar 2",18.4971776,73.94075819999999,500, 411001, Pune District, Maharashtra, India
"kondhwa khurd,Bhagydaynagar",18.4695088,73.8889779,500, 411018, Pune District, Maharashtra, India
"Kondhwa Kh, Tamboli Market",18.4826687,73.8913862,500, 411018, Pune District, Maharashtra, India
"Kondhwa Kh, Mitha nagar",18.4722983,73.88102049999999,500, 411018, Pune District, Maharashtra, India
"Wanawadi, SRPF",18.4912296,73.9095279,500, 411001, Pune District, Maharashtra, India
"Hadapsar,Gosavi wasti",18.5096028,73.9470036,500, 411028, Pune District, Maharashtra, India
Bibwewadi Sr no.601 Pai Samta Nagar Vashat area,18.4690213,73.8640944,500, 411001, Pune District, Maharashtra, India
"Hadapsar ,Lakshminagar Railway Line ",18.508934,73.92591019999999,500, 411001, Pune District, Maharashtra, India
"Ghorpadi,Dhobarwadi Sardar Mudaliyar School",18.5207496,73.89790529999999,500, 411001, Pune District, Maharashtra, India
"Shivajinagar ,janwadi ,Gokhlenagar",18.5292326,73.82499729999999,500, 411001, Pune District, Maharashtra, India
"Shivajinagar F no.883,Wadarwadi Wadar Housing Society",18.5277081,73.83639269999999,500, 411001, Pune District, Maharashtra, India
"Shivajinagar ,Pandawnagar,Helth Camp ,Wadarwadi",18.5277081,73.83639269999999,500, 411001, Pune District, Maharashtra, India
"Shivajinagar,Pandavnagar,Gunjalwadi",18.5314419,73.8445617,500, 411001, Pune District, Maharashtra, India
"Shivajinagar,Khairewadi,Ganeshkhind road",18.537534,73.838146,500, 411001, Pune District, Maharashtra, India
"Shivajinagar ,Krantivir,Chafekar nagar,Ganeshkhind road",18.5351848,73.8384651,500, 411001, Pune District, Maharashtra, India
"Sangamwadi TP Schme F no.7 ,9 Mula road,Aadarshnagar",18.5498704,73.85549189999999,500, 411001, Pune District, Maharashtra, India
"Shivajinagar,Wakdewadi,Sambhajinagar,PMC colony",18.5424091,73.8521981,500, 411001, Pune District, Maharashtra, India
"Shivaji nagar, Railway Station South Side",18.5322311,73.85177449999999,500, 411001, Pune District, Maharashtra, India
"Shivaji nagar, kamgar putala ",18.5274083,73.85771129999999,500, 411011, Pune District, Maharashtra, India
"Shivaji nagar, Mahatma gandhi slum area",18.5314419,73.8445617,500, 411001, Pune District, Maharashtra, India
"Shivaji nagar, Patil estate ",18.5329125,73.8547709,500, 411001, Pune District, Maharashtra, India
"Yerwada, White House Society",18.5486122,73.8895897,500, 411006, Pune District, Maharashtra, India
Wadgaon Sheri,18.5512771,73.92098940000001,500, 411001, Pune District, Maharashtra, India
"Yerwada, Gandhi Nagar 1",18.54944,73.89155099999999,500, 411006, Pune District, Maharashtra, India
"Yerwada, Gandhi Nagar 2",18.550028,73.88978519999999,500, 411001, Pune District, Maharashtra, India
"Parvati, Janta vasahat",18.4901977,73.8397009,500, 411001, Pune District, Maharashtra, India
"Dhayari, Raikar Mala Parisar",18.4505768,73.8186052,500, 411041, Pune District, Maharashtra, India
"""Hadapsar, Chintamani",18.4858018,73.9341451,500, 411001, Pune District, Maharashtra, India
"Hadapsar, Adarsh Colony",18.48202,73.92789929999999,500, 411001, Pune District, Maharashtra, India
"Hadapsar ,Gondhale nagar,Natraj Colony",18.4937072,73.9478961,500, 411001, Pune District, Maharashtra, India
"Fursungi, Bherainagar",18.4726725,73.9784573,500, 412308, Pune District, Maharashtra, India
"Hadapsar,Bankar Colony Shantinagar",18.4993709,73.9444188,500, 411001, Pune District, Maharashtra, India
"Hadapsar,Sadesatra Nali, Ganesh Nagar",18.5122829,73.9488405,500, 411028, Pune District, Maharashtra, India
"Kondhwa Kh,Ashraf Nagar",18.4614917,73.8822808,500, 411018, Pune District, Maharashtra, India
"Erandwane,Khilarewadi Flat no.15",18.5102285,73.8382306,500, 411001, Pune District, Maharashtra, India
"Kothrud, Postman Colony, Shastri nagar,PMC Colony,Sagar Colony",18.5032222,73.80128549999999,500, 411038, Pune District, Maharashtra, India
Erandwane Sr no.44 Pai Kelewadi,18.5076336,73.82499729999999,500, 411001, Pune District, Maharashtra, India
"Erandwane Sr no.44 Pai Kelewadi,Vitthal Temple area",18.5076336,73.82499729999999,500, 411001, Pune District, Maharashtra, India
"Erandwane Sr no.44 Pai Kelewadi,Vishvashanti Chouk",18.5076336,73.82499729999999,500, 411001, Pune District, Maharashtra, India
"Erandwane Sr no.44 Pai Kelewadi,Vasant Nagar area",18.5076336,73.82499729999999,500, 411001, Pune District, Maharashtra, India
"Karve nagar,Hingne Bk sr no.53 Pai,Wadar wasti",18.4912336,73.8125611,500, 411001, Pune District, Maharashtra, India
"Kothrud Postman Colony ,Shastrinagar,PMC Colony ,Sagar Colony",18.5032222,73.80128549999999,500, 411038, Pune District, Maharashtra, India
"Bhimnagar, Pimpri",18.6665469,73.8551385,500, 411026, Pune District, Maharashtra, India
"Nanekar Chawl, Pimpri",18.6297811,73.7997094,500, 411017, Pune District, Maharashtra, India
"Indiranagar, Chinchwad",18.6419461,73.7995102,500, 411019, Pune District, Maharashtra, India
"Anand Nagar, Ch. Station",27.099451,83.269904,500, 273155, Mahrajganj, Uttar Pradesh, India
Bhatnagar,41.7722246,-88.03932329999999,500, 60517, DuPage County, Illinois, United States of America
"Sadguru Colony, Wakad",18.6091494,73.779777,500, 431027, Pune District, Maharashtra, India
"Mauli Chowk, Kalatenagar, Wakad",18.5979477,73.7637043,500, 411033, Pune District, Maharashtra, India
"Tanishq Orchid, Charholi",18.6634895,73.8957751,500, 412105, Pune District, Maharashtra, India
"Dattanagar, Akurdi",18.6376072,73.7671381,500, 411033, Pune District, Maharashtra, India
Phulenagar,18.560961,73.874985,500, 411001, Pune District, Maharashtra, India
"Khandoba Mal, Bhosari",18.6182913,73.85109539999999,500, 411039, Pune District, Maharashtra, India
"Patil Nagar, Chikhali",18.6842091,73.8143365,500, 412114, Pune District, Maharashtra, India
"Sukhwani Imperial, Morwadi",18.6334545,73.80512279999999,500, 411017, Pune District, Maharashtra, India
"Katenagar, Charholi",18.6659411,73.88655179999999,500, 412105, Pune District, Maharashtra, India
"Budhanagar, Pimpri",18.6297811,73.7997094,500, 411017, Pune District, Maharashtra, India
"Navjeevan CHS, Neharunagar",18.4265686,73.2440996,500, Maharashtra,Roha, Raigad, India
"Anand Park, Nigadi Pradhikaran",18.63153,73.7781554,500, 411033, Pune District, Maharashtra, India
"Kamalakar Chowk, Wakad",18.5987164,73.7636989,500, 431027, Pune District, Maharashtra, India
Sai Shraddha Apt. Kharalwadi,18.6280997,73.8110279,500, 300054, Pune District, Maharashtra, India
"Balaji Nagar, Bhosari",18.6338366,73.83124649999999,500, 411026, Pune District, Maharashtra, India
"Vijaynagar, Kalewadi",18.6202008,73.7908073,500, 411034, Pune District, Maharashtra, India
"Renuka Apt., Dalvinagar",18.643213,73.7818319,500, 411003, Pune District, Maharashtra, India
"Sonkar Complex, Pimpri",18.661594,73.77767,500, 411044, Pune District, Maharashtra, India
"Saibaba Nagar, Chinchawad",18.4698283,73.87866009999999,500, 411018, Pune District, Maharashtra, India
Wadmukhwadi,18.6447593,73.88601,500, 412105, Pune District, Maharashtra, India
"Shivatirth Nagar, Rahatani",18.6101971,73.7794093,500, 411033, Pune District, Maharashtra, India
"Gulabnagar, Dapodi",18.5752944,73.83414549999999,500, 411012, Pune District, Maharashtra, India
"Shindenagar, Old Sangvi",18.5719139,73.8231593,500, 411 007, Pune District, Maharashtra, India
"Sangamnagar, Old Sangavi",18.5726924,73.8279381,500, 411012, Pune District, Maharashtra, India
"Geeta Society, Bhosari",18.6195327,73.8529332,500, 411039, Pune District, Maharashtra, India
"Netaji Nagar, Pimple Gurav",18.5878316,73.81580699999999,500, 411027, Pune District, Maharashtra, India
"Ramkrushna Chowk, Pimple Gurav",18.5841392,73.8224558,500, 411012, Pune District, Maharashtra, India
Morewasti,18.6760384,73.7992634,500, 412114, Pune District, Maharashtra, India
"Mankar Empire, Wakad",18.5920652,73.7735247,500, 431027, Pune District, Maharashtra, India
"Joytibanagar, Kalewadi",18.612808,73.7865791,500, 411017, Pune District, Maharashtra, India
"Bella Vista, Wakad",18.5961088,73.7642888,500, 431027, Pune District, Maharashtra, India
"Nayanprabha School, Wakad",18.6010921,73.7641245,500, 411033, Pune District, Maharashtra, India
"Khandobamal-2, Bhosari",18.6182913,73.85109539999999,500, 411039, Pune District, Maharashtra, India
"Sai Sneha Park, Old Sangvi",18.5746167,73.8270421,500, 411012, Pune District, Maharashtra, India
"Belthikanagar, Thergaon",18.6069328,73.77095229999999,500, 411033, Pune District, Maharashtra, India
"Yas Residancy, Sangamnagar, Old Sangvi",18.5699666,73.8268719,500, 411 007, Pune District, Maharashtra, India
"Gurudatta Colony, Walhekarwadi",18.6351901,73.7598553,500, 411003, Pune District, Maharashtra, India
"BU Bhandari, Dighi",18.6238994,73.8692926,500, 411039, Pune District, Maharashtra, India
"Sonkar Chambers, Pimpri",18.6248247,73.8026333,500, 411018, Pune District, Maharashtra, India
"Shaunagar, Chinchwad",18.6566489,73.80808689999999,500, 411019, Pune District, Maharashtra, India
"Kalbhornagar, Akurdi",18.6493337,73.7904396,500, 411019, Pune District, Maharashtra, India
"Regent Park, Chikhali",18.646714,73.8908246,500, 412105, Pune District, Maharashtra, India
"Dhorenagar, Old Sangvi",18.5746712,73.8176451,500, 411027, Pune District, Maharashtra, India
"Keshavnagar, Chinchwad",18.6274205,73.7814033,500, 411034, Pune District, Maharashtra, India
"Gokul CHS, Morewasti",18.6760384,73.7992634,500, 412114, Pune District, Maharashtra, India
"Apulki CHS, Shahunagar",18.6566489,73.80808689999999,500, 411019, Pune District, Maharashtra, India
"Vaibhavnagar, Pimpri",18.6143664,73.7981605,500, 411017, Pune District, Maharashtra, India
"Kauntaya CHS, Rupeenagar",18.6747413,73.7829081,500, 411044, Pune District, Maharashtra, India
"Samarth Ashok CHS, Rupeenagar",18.6747413,73.7829081,500, 411044, Pune District, Maharashtra, India
"Kauntey CHS, Rupeenagar",18.6747413,73.7829081,500, 411044, Pune District, Maharashtra, India
"Nadhenagar, Kalewadi",18.6147655,73.7924618,500, 411017, Pune District, Maharashtra, India
"SMS Colony, Dapodi",18.5756295,73.8326465,500, 411012, Pune District, Maharashtra, India
"Shewale Apt, Dapodi",18.5852963,73.8333804,500, 411012, Pune District, Maharashtra, India
"Mane Chawl, Dapodi",18.5852963,73.8333804,500, 411012, Pune District, Maharashtra, India
"New Gulab nagar, Dapodi",18.5752944,73.83414549999999,500, 411012, Pune District, Maharashtra, India
"Laltopinagar, Morewadi",18.635112,73.8047781,500, 411019, Pune District, Maharashtra, India
"Adharsha Society, Kalbhornagar",18.6493337,73.7904396,500, 411019, Pune District, Maharashtra, India
"Yashodha CHS, Ajanthanagar",18.6630818,73.791175,500, 411019, Pune District, Maharashtra, India
"Royal Imperio, Pimple Saudagar",18.6000793,73.7910141,500, 431027, Pune District, Maharashtra, India
"Mahatma Phule Society, Nigdi",18.6491735,73.7706532,500, Maharashtra, Haveli, Pune District, India
"Near Panchadurga CHS, Rupeenagar",18.6747413,73.7829081,500, 411044, Pune District, Maharashtra, India
"Gawlinagar, Bhosari",18.643326,73.82451,500, 411026, Pune District, Maharashtra, India
"Chatrapati Chowk, Bhopkhel",18.5953919,73.76879199999999,500, 431027, Pune District, Maharashtra, India
"Saikrupa CHS, Nigdi",18.6491735,73.7706532,500, Maharashtra, Haveli, Pune District, India
Triveninagar,26.8852716,80.9237942,500, 226020, Lucknow, Uttar Pradesh, India
"Om Sai CHS, Chikhali",18.6849384,73.8369441,500, 412114, Pune District, Maharashtra, India
"Akashganga Society, Pimpri",18.6003574,73.7854383,500, 431027, Pune District, Maharashtra, India
"Sant Tukaramnagar, Bhosari",18.6218678,73.8570075,500, 411039, Pune District, Maharashtra, India
"Siddharth Building, Ajanthanagar",18.6630818,73.791175,500, 411019, Pune District, Maharashtra, India
"Sonigara Opel, Chinchwad Station",18.6426445,73.7901017,500, 411019, Pune District, Maharashtra, India
"Siddhivinayak Colony, Bapdevnagar, Kiwale",18.661162,73.728662,500, 412101, Pune District, Maharashtra, India
"Shakhari Bank, Nadhenagar, Kalewadi",18.6189344,73.7944093,500, 411017, Pune District, Maharashtra, India
"Divya Heights, Saudagar",18.6010823,73.7939784,500, 431027, Pune District, Maharashtra, India
"Shikshak Society, Pimple Nilakh",18.5738696,73.7919149,500, 411045, Pune District, Maharashtra, India
"Sec.27A, Pradhikaran",18.6518446,73.7733824,500, 411044, Pune District, Maharashtra, India
"Hallmark Avenue, Ravet",18.6488417,73.7521986,500, 412101, Pune District, Maharashtra, India
"Mamata Nagar Lane 2 , Sangvi",18.5717732,73.8297761,500, 411012, Pune District, Maharashtra, India
"Shastri Nagar, Pimpri",18.6092466,73.8095574,500, 411017, Pune District, Maharashtra, India
"Vaibhavnagar Road-2, Pimpri",18.6159303,73.797516,500, 411017, Pune District, Maharashtra, India
"Krystal City, Chikhali",18.6837009,73.833652,500, 412114, Pune District, Maharashtra, India
"Ushkal CHS, Sangvi",18.1705003,73.6624507,500, Maharashtra,Bhor, Pune District, India
"PC Sahakari Bank, Nadhenagar",23.2295237,72.64854679999999,500, 382016, Gandhinagar District, Gujarat, India
Dnyanesh Apt. Tanajinagar,18.6257716,73.7845569,500, 411034, Pune District, Maharashtra, India
"Bhimashankar Colony, Dighi",18.6148698,73.8729867,500, 411039, Pune District, Maharashtra, India
"Adharshnagar, Dighi",18.6233089,73.8672672,500, 411039, Pune District, Maharashtra, India
"Jyotibanagar,Tapkirchowk",18.613402,73.7883171,500, 411017, Pune District, Maharashtra, India
"Ganeshnagar, Thergaon",18.6091005,73.7628627,500, 411033, Pune District, Maharashtra, India
"Siddhi Anand Park, Morewasti",18.669616,73.7950738,500, 411019, Pune District, Maharashtra, India
"Dagdupatil Nagar, Thergaon",18.6128185,73.77646779999999,500, 411033, Pune District, Maharashtra, India
"Sanskriti Society, Wakad",18.5951503,73.777266,500, 431027, Pune District, Maharashtra, India
"Ajinkya Colony, Wakad",18.5917527,73.7579725,500, 431027, Pune District, Maharashtra, India
"Prakash Pagriya Path, Kasarwadi",18.6069777,73.82350799999999,500, 300054, Pune District, Maharashtra, India
"Morya society, Chafekar Chowk",18.6275599,73.7820296,500, 411033, Pune District, Maharashtra, India
"Shanti CHS, Chikhali",18.6824723,73.8196095,500, 412114, Pune District, Maharashtra, India
Aishwaryam Courtyard Chikhali,18.675879,73.80604869999999,500, 412114, Pune District, Maharashtra, India
"Namo Inspiria, Chikhli",18.6857142,73.81250279999999,500, 412114, Pune District, Maharashtra, India
"Royal Heritage, Pimpri",18.625282,73.80382,500, 411017, Pune District, Maharashtra, India
"Sai Orchid, Pimpri",18.5968251,73.8034346,500, 411027, Pune District, Maharashtra, India
"Shastri Nagar, Pimpri Colony",18.6092466,73.8095574,500, 411017, Pune District, Maharashtra, India
"Waghere Park, Pimpri Colony",18.6148205,73.801791,500, 411017, Pune District, Maharashtra, India
"Trimurti Building, Taleranagar",18.625378,73.784829,500, 411034, Pune District, Maharashtra, India
"Shivsai Nagar, Dighi",18.621916,73.8722097,500, 411039, Pune District, Maharashtra, India
"Bapuji Apt, Kate Wasti, P.Saudagar",18.6241223,73.73467699999999,500, 411035, Pune District, Maharashtra, India
"R.G.Patel Marg, Pradhikaran",18.6575156,73.7706664,500, 411044, Pune District, Maharashtra, India
Akurdi Gavthan,18.6528236,73.77944769999999,500, 411044, Pune District, Maharashtra, India
"Bijali Nagar, Ganga Nagar",18.6476483,73.7797289,500, 411003, Pune District, Maharashtra, India
"Near Sanjeevani Herbal India, Mohannagar",28.672818,77.3862836,500, 201001,Ghaziabad, Uttar Pradesh, India
"Sai Society, Dighi Road",18.620152,73.86240769999999,500, 411039, Pune District, Maharashtra, India
"Ganga Skies, Sant Tukaram Nagar",18.616882,73.8189938,500, 300054, Pune District, Maharashtra, India
"Jaymala Nagar, Old Sangvi",18.5703742,73.8240783,500, 411007, Pune District, Maharashtra, India
"Shreepad Apt, New Sangvi",18.5793178,73.8142604,500, 411027, Pune District, Maharashtra, India
"Sonigira Vihar, Kalewadi",18.6182744,73.78942649999999,500, 411034, Pune District, Maharashtra, India
LIG Colony,22.964932,76.0439051,500, 455001, Dewas, Madhya Pradesh, India
Shilpa Housing Society Nigadi,18.5199332,73.8169151,500, 411038, Pune District, Maharashtra, India
"Utkarsha Mitra Mandal, Nigadi",18.6491735,73.7706532,500, Maharashtra, Haveli, Pune District, India
"PCMC Building No.1, Nigadi",18.6483139,73.7675447,500, 411003, Pune District, Maharashtra, India
"Plot No.399, Sec.22, Nigadi",18.6491735,73.7706532,500, Maharashtra, Haveli, Pune District, India
"Bijalinagar, Shivnagari",18.6393569,73.7697264,500, 411003, Pune District, Maharashtra, India
"Sudarshan Nagar, Pimple Gurav",18.5977841,73.8143365,500, 300054, Pune District, Maharashtra, India
"Vaidu Vasti, Pimple Gurav",18.597139,73.8139965,500, 411003, Pune District, Maharashtra, India
"Rondale Chawl, Dapodi",18.5852963,73.8333804,500, 411012, Pune District, Maharashtra, India
Nayanpar Nashik Phata Kasarwadi,18.5978587,73.8011606,500, 431027, Pune District, Maharashtra, India
"Tanaji Nagar, Chinchawad",18.6257716,73.7845569,500, 411034, Pune District, Maharashtra, India
"Shani Mandir, Sant Tukaram Nagar",18.6211187,73.8190259,500, 300054, Pune District, Maharashtra, India
"422/213, Sant Tuakram Nagar",18.6208633,73.8190178,500, 300054, Pune District, Maharashtra, India
"Verve Apartment, Bhumkar Wasti",18.604269,73.7489401,500, 411035, Pune District, Maharashtra, India
"Panchashil Nagar, Pimple Nilakh",18.5707113,73.7930133,500, 411045, Pune District, Maharashtra, India
Aditya Vivaj Ravet,18.6506274,73.74333349999999,500, 412101, Pune District, Maharashtra, India
"Goyal Garima, Keshavnagar",18.6209663,73.7857032,500, 411034, Pune District, Maharashtra, India
"Pachpeer Chowk, Kalewadi",18.6170437,73.7901145,500, 411017, Pune District, Maharashtra, India
"Anandnagar, Old Sangvi",18.5745041,73.8188864,500, 411007, Pune District, Maharashtra, India
"Anthony Garden, Sant Tukaram Nagar",18.6194304,73.8199427,500, 300054, Pune District, Maharashtra, India
"Pratiksha Apt, New Sangvi",18.5793178,73.8142604,500, 411027, Pune District, Maharashtra, India
Lonibhapkar,18.2340468,74.3763415,500, 412304, Pune District, Maharashtra, India
"Dudhsangh Vasahat, Baramati",18.1455344,74.567268,500, 413102, Pune District, Maharashtra, India
Shidheshwar-Nimbodi,19.0540785,74.7863698,500, 414001, Ahmednagar, Maharashtra, India
Korhale BK,18.1259634,74.3939339,500, Maharashtra, Baramati, Pune District, India
"Savtamali nagar ,Indapur",18.1091277,75.0268352,500, 413106, Pune District, Maharashtra, India
Malwadi no.1 area,18.5053012,73.93892129999999,500, 411001, Pune District, Maharashtra, India
"Prabhag no.4 Mandai area,Indapur",18.5133793,73.83308439999999,500, 411001, Pune District, Maharashtra, India
"Ramves to Tarechi school ,Indapur",18.1186943,75.0234074,500, 413106, Pune District, Maharashtra, India
Manjari BK-Mahadeonagar,18.5072112,73.9587203,500, 412308, Pune District, Maharashtra, India
"Wagholi Owhalwadi road, Ganesh nagar ",18.5770563,73.984017,500, 412207, Pune District, Maharashtra, India
Narhe Gokul nagar,18.459341,73.815109,500, 411041, Pune District, Maharashtra, India
"Wagholi Ganesh Park Road, Kawade Wasti",18.5761765,73.958227,500, 412207, Pune District, Maharashtra, India
Bakore Prestincity phase-1 A,53.763201,-2.70309,500, PR1 2RN, North West England, England, United Kingdom
"Manjari BK-Shivjany Society , Bhandalkar nagar",18.5029897,73.9712483,500, 412307, Pune District, Maharashtra, India
wagholi- Zade residency ,18.5813661,73.97252139999999,500, 412207, Pune District, Maharashtra, India
Narhe -Navdeep society to Devashree Society,18.4464732,73.826375,500, 411041, Pune District, Maharashtra, India
Wagholi -Ganesh nagar,18.5769787,73.968617,500, 410014, Pune District, Maharashtra, India
kadamwakwasti -Swami vivekananda,18.4887133,74.0178938,500, 412200, Pune District, Maharashtra, India
Narhe kanjarwasti krishninagar,18.4464732,73.826375,500, 411041, Pune District, Maharashtra, India
Alandi Mathoba -Panmala,18.5246312,73.8071513,500, 411001, Pune District, Maharashtra, India
Manjari BK-Bhandalkar Nagar,18.4998045,73.97166229999999,500, 412307, Pune District, Maharashtra, India
Wagholi (Datta Mandir area) Kalubai Nagar,18.577226,73.9834,500, 412207, Pune District, Maharashtra, India
Pisoli-Gagan Residency,18.4436015,73.9068152,500, 411060, Pune District, Maharashtra, India
Manjari Kurd-Pawar Wasti,18.5234503,73.9853801,500, 412307, Pune District, Maharashtra, India
Koregaon Gavthan- Mahadeo Mandir,17.702751,74.1432296,500, 415500, Satara, Maharashtra, India
Manjari BK-Mhasoba Wasti,18.5293126,73.9601919,500, 410014, Pune District, Maharashtra, India
"Wagholi-Bayafa road, Canara Bank area",18.578649,73.979066,500, 412207, Pune District, Maharashtra, India
Waghli-Dhut Company area,18.5807719,73.9787063,500, 412207, Pune District, Maharashtra, India
Kadamwakwasti -Chandane Wasti,18.4887133,74.0178938,500, 412200, Pune District, Maharashtra, India
Manjari Bk-Gopalpati( Tilekar Colony),18.5091591,73.9668408,500, 412307, Pune District, Maharashtra, India
Waghli-Ubale Nagar,18.5664327,73.95775139999999,500, 411001, Pune District, Maharashtra, India
Manjari Bk-Godbole Wasti (Near Mhasoba Mandir),18.5221459,73.9587593,500, 412308, Pune District, Maharashtra, India
Holkarwadi-Zambare Wasti -Tupe floating,18.438516,73.94112559999999,500, 411060, Pune District, Maharashtra, India
Manjari Bk- Aanaji Wasti,18.5220966,73.97086139999999,500, 412307, Pune District, Maharashtra, India
Narhe -Siddhivinayak Angan society E wing ,18.4464732,73.826375,500, 411041, Pune District, Maharashtra, India
Kondave Dhavde-Khadakban NDA gate,18.4569122,73.76964819999999,500, 41158, Pune District, Maharashtra, India
Shindewadi-Jagtapwadi,18.5818638,74.1537666,500, Maharashtra,Haveli, Pune District, India
Lonikand-Sadur Park (Tulapur Fata),18.627213,74.033671,500, 41216, Pune District, Maharashtra, India
Wagholi-Roadwood park (Aavhalwadi road),18.5785153,73.9867678,500, 412207, Pune District, Maharashtra, India
Rahatwade,18.3418988,73.7937486,500, Maharashtra, Haveli, Pune District, India
Uruli Kanchan-B J Shirke school area,18.4924854,74.1363829,500, 412202, Pune District, Maharashtra, India
Wadachiwadi,18.1012956,75.6339017,500, Maharashtra,Madha, Solapur, India
 Pisoli -ARV new town building bricks college area,18.4395779,73.9070091,500, 411060, Pune District, Maharashtra, India
Uruli Kanchan- Aasram road,18.4902237,74.13093099999999,500, 412202, Pune District, Maharashtra, India
Manjari Bk- Manjari farm,18.4958752,73.9763464,500, 412307, Pune District, Maharashtra, India
"Nanded -Ashish Plaza ,Jijai Nagar",19.1382514,77.3209555,500, 431600, Nanded, Maharashtra, India
Narhe-Saipuram Society,18.451331,73.82360659999999,500, 411041, Pune District, Maharashtra, India
Uralikanchan-Tej Platinam Society,18.4945453,74.1317768,500, 412202, Pune District, Maharashtra, India
Manjari Kurd-Indiranagar,18.5287353,73.9932872,500, 412307, Pune District, Maharashtra, India
Khdakwasla D I T Girinagar,18.4276826,73.76802839999999,500, 410301, Pune District, Maharashtra, India
Wadki govthan,18.4313952,73.97982,500, 412308, Pune District, Maharashtra, India
Dehu Gao-Chvhan Nagarno.2 Vithalwadi (Botre aali),18.7166713,73.76781790000001,500, 412114, Pune District, Maharashtra, India
Dheu-Malwadi (Vignahar Society ),22.6301294,88.3851794,500, 700050, Kolkata, West Bengal, India
Keduri-Thitewadi,18.8032954,74.0505752,500, 412208, Pune District, Maharashtra, India
"Taklihaji-Sablewadi chowk to Fhateshwar dam, Fakte road to Ghod River ",18.5436604,74.56850399999999,500, 414700, Pune District, Maharashtra, India
Shikrapur-Dattavihar Colony,18.6923691,74.1323125,500, Maharashtra, Shirur, Pune District, India
Shikarpur-Bandal Complex,18.6923691,74.1323125,500, Maharashtra, Shirur, Pune District, India
Ranjangao Ganpati -Lande wasti,18.7412302,74.2467689,500, Maharashtra, Shirur, Pune District, India
Daund city (Prabhag no. 4 and 5),18.4631179,74.5840492,500, 413801, Pune District, Maharashtra, India
Nanvij,18.4712399,74.53723500000001,500, 413800, Pune District, Maharashtra, India
Daund city(Gajanan Society),18.4592756,74.5674339,500, 413800, Pune District, Maharashtra, India
Khutbav (Galandwadi),18.5094648,74.3202542,500, Maharashtra, Daund, Pune District, India
Khutbav(Salobawadi),18.5094648,74.3202542,500, Maharashtra, Daund, Pune District, India
"Mandhar gavthan,Upalwasti,Tamboliwast,Kumbharwasti,Baudhwasti,Telarwasti,Morewasti,",18.6760384,73.7992634,500, 412114, Pune District, Maharashtra, India
"Saswad nagarparishad ,Spardha pariksha aabhashika kendra",18.3463128,74.0301826,500, 412301, Pune District, Maharashtra, India
"Saswad Nagarparishad-Sopannagar,Waghdongar water tank North side",18.358393,74.0226678,500, 412300, Pune District, Maharashtra, India
"Bopgaon gavthan,Misalwadi gavthan",18.4983432,73.9619376,500, 412308, Pune District, Maharashtra, India
Mahur gavthan,19.1611831,72.9486403,500, 40081, Mumbai Suburban, Maharashtra, India
Sali Saswad,18.352071,74.03295,500, 412300, Pune District, Maharashtra, India
"Chakan Aabegao road North side ,Zitramala gat no.114 to 2121 area",18.7632075,73.8613203,500, 410500, Pune District, Maharashtra, India
Aalandi prabhag no.2 property no.1969 to property no.2016 area,18.6782865,73.89503359999999,500, 412105, Pune District, Maharashtra, India
Chakan prabhag no.14 -Balkrushn Nagar and Susdarshan  Society all area,18.7632075,73.8613203,500, 410500, Pune District, Maharashtra, India
Aalandi property no.1891 to Chwadi chowk property no. 1972 area,18.6782865,73.89503359999999,500, 412105, Pune District, Maharashtra, India
Chakan prabhag no.22 -shree Ramnagar -Sita Apartment all area,18.5133793,73.83308439999999,500, 411001, Pune District, Maharashtra, India
Chakan Prabhag no.19 -baluteaali -Vinayak Aapartment all area,18.7632075,73.8613203,500, 410500, Pune District, Maharashtra, India
"Rakshewadi all area ,Rajguru Nagar nagarparishad ward no.2,3",18.8573644,73.8938558,500, 412205, Pune District, Maharashtra, India
"Vadgaon, Khed-Varudewasti Vadgaon all area",18.4659813,73.8246309,500, 411001, Pune District, Maharashtra, India
"Papalwadi ,Aalyaciwasti bailghat gaovthan east area",18.9367249,73.8624893,500, Maharashtra,Khed, Pune District, India
Kurkundi-Ralewasti,18.8505156,73.7845569,500, Maharashtra, Khed, Pune District, India
"Paiet-gavadewasti,Paiet Gavthan ,Aahire road-Savantwadi",15.9052627,73.8213213,500, 416500, Sindhudurg, Maharashtra, India
Bursewadi gavthan,18.9864046,73.7970575,500, 412402, Pune District, Maharashtra, India
Yewalewadi-kadbakutti Sairaj hotel area,18.4363212,73.8963496,500, 411048, Pune District, Maharashtra, India
"Vetale-Varchiaali ,Madhli aali",18.9490513,73.7904396,500, Maharashtra, Khed, Pune District, India
Vashere-ganeshwadi,19.3334998,73.1615127,500, 421302, Thane, Maharashtra, India
Surkundi-Guravwasti,18.9985461,73.71542149999999,500, 412402, Pune District, Maharashtra, India
Nigoj -Bendalewasti,18.9575333,74.2810193,500, Maharashtra, Parner, Ahmednagar, India
Bahul-Pansarewasti,18.7336285,74.0123851,500, Maharashtra,Khed, Pune District, India
Nanekarwadi-unicare Hospital-Aaroshi Society,18.754925,73.8577966,500, 410500, Pune District, Maharashtra, India
"Kadus gavthan,Baluteaali,Kaliwada,Charmkar wasti,Kumbhar wasti,Shantinagar,Tamboli lane,Muslim aali,Kohinde road,Panchwati ",18.9068503,73.7536695,500, Maharashtra, Khed, Pune District, India
Kadus-Shendewadi no.1,18.8974194,73.8095574,500, Maharashtra, Khed, Pune District, India
"Mhalunge-Bedwasti,Mhalungekar Chowk",18.57382,73.7561594,500, 411057, Pune District, Maharashtra, India
Jejuri Nagarparishad-Khomnewasti,18.2780997,74.1612194,500, 412303, Pune District, Maharashtra, India
"Indirangar,Dhumalwasti",12.9783692,77.6408356,500, 560038, Bangalore Urban, Karnataka, India
Bankarwadi,20.0167771,75.61498929999999,500, Maharashtra,Badnapur, Jalna, India
Bhimgotha,29.9423426,78.15466169999999,500, 249401, Haridwar, Uttarakhand, India
Fulenagar,18.560961,73.874985,500, 411001, Pune District, Maharashtra, India
Shinoli,15.8628992,74.3968658,500, Maharashtra,Chandgad, Kolhapur, India
Nirgudsar - Kalsemala ,18.9759056,74.0447003,500, 412406, Pune District, Maharashtra, India
Valti - Ganjvevasti and Bhokarvasti-Patilvada,17.6013686,73.9918933,500, 415002,Satara, Maharashtra, India
Girvali,19.0825149,73.85587360000001,500, 412408, Pune District, Maharashtra, India
Narodi,19.0410801,73.88454,500, 412408, Pune District, Maharashtra, India
Pargaon-Avsari9 Budurak-Balaji Complex,18.9649418,74.0021019,500, 412406, Pune District, Maharashtra, India
Avsari Budurak Gaonthan - Ward No.3 limited area,18.622812,73.8492576,500, 411039, Pune District, Maharashtra, India
Eaklahare - Khalvadi,19.9783745,73.88601,500, 422400, Nashik, Maharashtra, India
Chaptevadi - Malwadi,18.5053012,73.93892129999999,500, 411001, Pune District, Maharashtra, India
Kondhare Gaonthan,19.1486493,73.6795574,500, 412407, Pune District, Maharashtra, India
Mahalunge - Ghoda Gaonthan.,18.57382,73.7561594,500, 411057, Pune District, Maharashtra, India
"Portion of civil area considering H No. 70 & 70-A, New Bazar, Neeta Appt Kirkee towards BBP No. 18 H No. 125/OB then turning along lane between H No. 125/OB, portion of civil area consisting  469-B & 470, old bazar, Kirkee",18.5625986,73.8523582,500, Maharashtra, Pune City, Pune District, India
"from the junction of Chhatrapati Shivaji Road and Hospital road to the junction of Chhatrapati cantonment quarters at Surtimohalla along boundary of civil area upto BBP 18, then consisting of 06 quarters at Surtimohalla GLR Sy No. 94, Kirkee",18.5678827,73.8519946,500, 411020, Pune District, Maharashtra, India
"Waitagwadi, East Kirkee",18.5625986,73.8523582,500, Maharashtra, Pune City, Pune District, India
"T.S, including lane, bye-lanes and adjoining open spaces, Kirkee",18.5625986,73.8523582,500, Maharashtra, Pune City, Pune District, India
"Portion of Darga Vasahat out of GLR Sy. 94, Kirkee",18.570155,73.8533317,500, 411018, Pune District, Maharashtra, India
"H No. Old Bazar, Kirkee",18.5625986,73.8523582,500, Maharashtra, Pune City, Pune District, India
"Portion of Type A Quarters, Building No. 6, Range Hills, Khadki",18.5526807,73.8449736,500, 411001, Pune District, Maharashtra, India
"Entire portion of Gawali Wada, Boottee Street - from junction of D.M. road upto Bachoo Adda (upto Synagogue Street)",18.5167473,73.87536,500, 411001, Pune District, Maharashtra, India
"Bhimpura Area - from Lane No. 1 to 21 from junction of V. P. Street and Jan Mohammed street upto Bhople Chowk, Bhople Chowk to Babajan Chowk, Babajan Chowk to V.P. Street along Jan Mohd. Street",18.5099318,73.87680449999999,500, 411001, Pune District, Maharashtra, India
"From H. No. 48, M.G. road upto H. No. 60, M.G. road, H. No. 400 upto H. No. 414 V. P. Street and 1153 to 1156 Saifee Street",12.9747066,77.6094093,500, 560025, Bangalore Urban, Karnataka, India
"Entire area of Modikhana - H. No. 2390 opposite Abaji Maidan and Dhobi Ghat Qtrs, opposite Poona College, Hidyatullah Road, from Pundol Apartments to Try Luck Chowk, Try Luck Chowk to H. No. 2158 New Modikhana along boundary of PMC and PCB",18.5069667,73.8767383,500, 411001, Pune District, Maharashtra, India
Sholapur Bazar H. No. 15 to 29 Sholapur Bazar,18.5051743,73.8793951,500, 411001, Pune District, Maharashtra, India
St. Vincents street H. No. 1993 to 1998 St. Vincents street,55.8625832,-4.266062499999999,500, G2 5HN, Glasgow City, Scotland, United Kingdom
Sacapir Street - H. No. 572 to 584 and area around Shivaji Market,18.51299,73.877842,500, 411001, Pune District, Maharashtra, India
Part of Wanowrie Bazar,18.4959788,73.89372709999999,500, 411001, Pune District, Maharashtra, India
"Kamshet village area, East Shikshak Society-Gulab Rane home",18.761137,73.5572055,500, Maharashtra, Mawal, Pune District, India
"Kamshet village area,West-Datta Colony -Sanjay Padavkar home",18.761137,73.5572055,500, Maharashtra, Mawal, Pune District, India
"Kamshet village area,South- Police Station -Sahara colony",18.761137,73.5572055,500, Maharashtra, Mawal, Pune District, India
"Kamshet village area, North- Nane Road railway gate, Balkrushan Jijaba Shinde home",18.7701669,73.5596121,500, Maharashtra, Mawal, Pune District, India
Parandwadi,18.6980909,73.6580359,500, 410005, Pune District, Maharashtra, India
"Takave ,Soyex Flora Company Campus area,Soyex Flora Company Colony",18.8028158,73.6230647,500, Maharashtra, Mawal, Pune District, India
Kadadhe,18.6941031,73.5329091,500, Maharashtra, Mawal, Pune District, India
Mau,33.6018323,-95.62476699999999,500, 75421, Lamar County, Texas, United States of America
"Talegao Dabhade area pai Prabhag no.4 ,Amay Nivas,Gudvil School,Anandnagar,Talegao -Chakan road area",18.7375763,73.67466259999999,500, 410506, Pune District, Maharashtra, India
"Talegao Dabhade area pai Prabhag no.13,North Flot no.56,Shailesh Thobe home,East-Colony road,South-Saptgiri 58, Shidhu Nushal home,West,Flot no.48, Girija Park Building no.2 area",18.7375763,73.67466259999999,500, 410506, Pune District, Maharashtra, India
"Kusgaon Bk ,Prabhag no.3, East-Nyara Cornor Building,West-Nyara Nivara Building,North-Shivsena office,South-Shree Swami Samarth Society",18.5133793,73.83308439999999,500, 411001, Pune District, Maharashtra, India
Lonavla area -Valvan -East Cunavala Bangala to Modi Bangla ,18.7557237,73.4090757,500, 410400, Pune District, Maharashtra, India
"Talegao Dabhade area Prabhag no.3 Namrata Society ,East -Namrata Sakar Society B7 Building ,West-Satykamal Colony Road ,North- Namrata Sakar Society A 4 Building ,South-Namrata Sakar premises",18.7371606,73.6877193,500, 410506, Pune District, Maharashtra, India
Varale village area-Eco City Phase-1 A 2 Building,18.7842222,73.80073399999999,500, Maharashtra, Khed, Pune District, India
"Talegao Dabhade area-Datta Mandir opposite 3 floor building Nivashi bulding,Dal aali",18.7375763,73.67466259999999,500, 410506, Pune District, Maharashtra, India
"INS Shivaji ,Lonavala Building no.P212",18.7557237,73.4090757,500, 410400, Pune District, Maharashtra, India
"Gharkul Vasti,Hinjewadi",18.5885292,73.7530244,500, 411035, Pune District, Maharashtra, India
"Sai Sankalp Society ,Bhugao",18.5011162,73.7507669,500, 412115, Pune District, Maharashtra, India
"Bella Case Society ,Wing L Building ,Sus",18.5454058,73.7777808,500, 411021, Pune District, Maharashtra, India
"Madhuvishwa Society  C Building ,Bavdhan",18.5160743,73.7723312,500, 411021, Pune District, Maharashtra, India
Aurangpur - Ramabainagar,26.7093494,79.97801779999999,500, 209205, Kanpur Nagar, Uttar Pradesh, India
Savargaon-Lakshminagar chowk,28.6371746,77.2756181,500, 110031V, East Delhi, Delhi, India
Vadaj -Vitthal ,23.0675934,72.5667133,500, 380001, Ahmedabad District, Gujarat, India
Vadaj- Vitthalvadi Vitthal-Rukmini Temple Area,19.2214943,73.1644884,500, 421003, Thane, Maharashtra, India
Shiroli-Aale - Inamvasti,16.6166719,74.1078459,500, 416006, Kolhapur, Maharashtra, India
Otur - More Chowk - Shreyas Plaza,19.2568967,73.98648519999999,500, 412409, Pune District, Maharashtra, India
Chincholi,17.4610238,77.4192758,500, 585307, Kalaburagi district, Karnataka, India
Navlewadi,17.7779711,74.2725846,500, Maharashtra,Khatav, Satara, India
"Kusur Gaonthan, Shankar Mala and Ramwadi",18.622812,73.8492576,500, 411039, Pune District, Maharashtra, India
Dhamankhal Gaonthan,18.622812,73.8492576,500, 411039, Pune District, Maharashtra, India
Junnar - Bramhin-Budharpeth - Vijayalaxmi Apartment,19.2031842,73.87425,500, 410502, Pune District, Maharashtra, India
Rajuri - Sayadri Vally Collage of Engineering Hostel,19.1368821,74.1491791,500, 412410, Pune District, Maharashtra, India
